     2.100          NAVIGATION                              RINEX VERSION / TYPE
fic2rin                                 06/08/2016 00:25:30 PGM / RUN BY / DATE
                                                            END OF HEADER
 5 16  6  7 23 59 28.0 -.114592723548D-03  .295585778076D-11  .000000000000D+00
     .100000000000D+01  .225000000000D+02  .520057376763D-08 -.981986628028D+00
     .113807618618D-05  .462838367093D-02  .635161995888D-05  .515379714775D+04
     .259168000000D+06  .158324837685D-06 -.138044363094D+01 -.372529029846D-08
     .945889822234D+00  .250343750000D+03  .451997048474D+00 -.828891669522D-08
     .201079804352D-09  .100000000000D+01  .190000000000D+04  .000000000000D+00
     .240000000000D+01  .000000000000D+00 -.107102096081D-07  .100000000000D+01
     .252006000000D+06  .400000000000D+01
11 16  6  7 23 59 44.0 -.649797264487D-03 -.125055521494D-11  .000000000000D+00
     .300000000000D+02 -.102062500000D+03  .574738225868D-08  .183137857602D+01
    -.556372106075D-05  .164289285894D-01  .944361090660D-05  .515367448616D+04
     .259184000000D+06  .165775418282D-06 -.278770806254D+01 -.352039933205D-06
     .897114644220D+00  .162812500000D+03  .152818004560D+01 -.839999275056D-08
     .778603860547D-10  .100000000000D+01  .190000000000D+04  .000000000000D+00
     .240000000000D+01  .000000000000D+00 -.121071934700D-07  .300000000000D+02
     .252006000000D+06  .400000000000D+01
13 16  6  7 23 59 44.0 -.232248567045D-04 -.250111042988D-11  .000000000000D+00
     .100000000000D+02 -.212500000000D+01  .415124434456D-08  .263503618361D+01
     .931322574615D-08  .431265041698D-02  .885874032974D-05  .515367760658D+04
     .259184000000D+06 -.931322574615D-08 -.208106410730D+00  .614672899246D-07
     .971670954818D+00  .214812500000D+03  .200554395313D+01 -.765389024382D-08
    -.645741183427D-09  .100000000000D+01  .190000000000D+04  .000000000000D+00
     .240000000000D+01  .000000000000D+00 -.111758708954D-07  .100000000000D+02
     .252006000000D+06  .400000000000D+01
14 16  6  7 23 59 44.0 -.181510113180D-04 -.204636307899D-11  .000000000000D+00
     .180000000000D+02 -.131562500000D+02  .442411285349D-08 -.196823300579D+01
    -.704079866409D-06  .872342009097D-02  .806152820587D-05  .515401569557D+04
     .259184000000D+06  .204890966415D-06 -.245201008578D+00 -.111758708954D-06
     .964135721266D+00  .227687500000D+03 -.196563621209D+01 -.777568103118D-08
    -.599667835715D-09  .100000000000D+01  .190000000000D+04  .000000000000D+00
     .240000000000D+01  .000000000000D+00 -.931322574615D-08  .180000000000D+02
     .252006000000D+06  .400000000000D+01
17 16  6  7 23 59 44.0 -.203994102776D-03  .000000000000D+00  .000000000000D+00
     .300000000000D+01 -.117656250000D+03  .432910889619D-08 -.175202647763D+01
    -.590831041336D-05  .109713252168D-01  .541098415852D-05  .515370302773D+04
     .259184000000D+06  .126659870148D-06  .286585134879D+01  .108033418655D-06
     .976821393446D+00  .279281250000D+03 -.192661615219D+01 -.795175979414D-08
    -.123933733766D-09  .100000000000D+01  .190000000000D+04  .000000000000D+00
     .240000000000D+01  .000000000000D+00 -.107102096081D-07  .300000000000D+01
     .252006000000D+06  .400000000000D+01
31 16  6  7 23 59 44.0  .265039037913D-03 -.193267624127D-11  .000000000000D+00
     .400000000000D+01  .870000000000D+02  .381765902082D-08  .158204609953D+01
     .467710196972D-05  .815072166733D-02  .104885548353D-04  .515376444626D+04
     .259184000000D+06 -.149011611938D-07  .758158315697D+00  .182539224625D-06
     .971299711560D+00  .181000000000D+03 -.395925481691D+00 -.759710216408D-08
    -.696457581682D-10  .100000000000D+01  .190000000000D+04  .000000000000D+00
     .240000000000D+01  .000000000000D+00 -.135041773319D-07  .400000000000D+01
     .252006000000D+06  .400000000000D+01
 2 16  6  8  0  0  0.0  .586912035942D-03 -.250111042988D-11  .000000000000D+00
     .570000000000D+02 -.748125000000D+02  .466698011274D-08  .279800269899D+01
    -.387243926525D-05  .157559646759D-01  .119414180517D-04  .515358099747D+04
     .259200000000D+06  .000000000000D+00 -.245578865249D+01 -.229105353355D-06
     .943400605679D+00  .133000000000D+03 -.211099698969D+01 -.771746432051D-08
     .202151277555D-09  .100000000000D+01  .190000000000D+04  .000000000000D+00
     .240000000000D+01  .000000000000D+00 -.200234353542D-07  .570000000000D+02
     .252006000000D+06  .400000000000D+01
 3 16  6  8  0  0  0.0 -.652531161904D-04 -.352429196937D-11  .000000000000D+00
     .870000000000D+02  .277187500000D+02  .493520557112D-08 -.275576951800D+01
     .146590173244D-05  .231826561503D-03  .625662505627D-05  .515368258286D+04
     .259200000000D+06  .186264514923D-07 -.136838675167D+01  .521540641785D-07
     .958820840405D+00  .256531250000D+03 -.175467229225D+01 -.820141305034D-08
     .208580116771D-09  .100000000000D+01  .190000000000D+04  .000000000000D+00
     .240000000000D+01  .000000000000D+00  .186264514923D-08  .870000000000D+02
     .252006000000D+06  .400000000000D+01
 4 16  6  8  0  0  0.0 -.257460400462D-03 -.568434188608D-12  .000000000000D+00
     .400000000000D+01  .622187500000D+02  .554308803472D-08 -.661658361184D+00
     .349618494511D-05  .849927368108D-02  .281818211079D-05  .515364664459D+04
     .259200000000D+06 -.558793544769D-08  .179611342160D+01  .130385160446D-06
     .983041653825D+00  .337062500000D+03  .893873242003D+00 -.828891669522D-08
     .321441960776D-09  .100000000000D+01  .190000000000D+04  .000000000000D+00
     .240000000000D+01  .630000000000D+02 -.195577740669D-07  .400000000000D+01
     .252006000000D+06  .400000000000D+01
 6 16  6  8  0  0  0.0  .201595947146D-03  .545696821064D-11  .000000000000D+00
     .670000000000D+02 -.512500000000D+02  .431017953628D-08  .267866395855D+01
    -.246055424213D-05  .412037014030D-03  .120066106319D-04  .515371248817D+04
     .259200000000D+06  .465661287308D-07 -.241844955861D+01 -.391155481339D-07
     .964428193700D+00  .146468750000D+03 -.133819487426D+01 -.782104006343D-08
     .254653464482D-09  .100000000000D+01  .190000000000D+04  .000000000000D+00
     .240000000000D+01  .000000000000D+00  .419095158577D-08  .670000000000D+02
     .252006000000D+06  .400000000000D+01
 7 16  6  8  0  0  0.0  .449845567346D-03 -.238742359215D-11  .000000000000D+00
     .980000000000D+02  .975937500000D+02  .401445293236D-08  .171703809122D+01
     .512413680553D-05  .954299373552D-02  .103134661913D-04  .515365394020D+04
     .259200000000D+06 -.135973095894D-06  .748759061186D+00  .800937414169D-07
     .966486592583D+00  .184406250000D+03 -.267552400677D+01 -.781961143249D-08
    -.102147111980D-09  .100000000000D+01  .190000000000D+04  .000000000000D+00
     .240000000000D+01  .000000000000D+00 -.111758708954D-07  .980000000000D+02
     .252006000000D+06  .400000000000D+01
 8 16  6  8  0  0  0.0 -.381679274142D-04 -.147792889038D-11  .000000000000D+00
     .560000000000D+02 -.109062500000D+03  .462376402690D-08 -.874804012676D+00
    -.587478280067D-05  .173891324084D-02  .491179525852D-05  .515370560455D+04
     .259200000000D+06 -.130385160446D-07  .281311455351D+01 -.109896063805D-06
     .963648334015D+00  .288750000000D+03 -.107783639445D+01 -.828713090655D-08
    -.160363822654D-09  .100000000000D+01  .190000000000D+04  .000000000000D+00
     .240000000000D+01  .000000000000D+00  .465661287308D-08  .560000000000D+02
     .252006000000D+06  .400000000000D+01
 9 16  6  8  0  0  0.0  .144334975630D-03  .727595761418D-11  .000000000000D+00
     .350000000000D+02 -.150312500000D+02  .472412535021D-08 -.211356992759D+01
    -.890344381332D-06  .557624385692D-03  .783614814281D-05  .515356500053D+04
     .259200000000D+06 -.316649675369D-07 -.328938075168D+00  .409781932831D-07
     .955198299752D+00  .224781250000D+03  .232475290478D+01 -.808462247126D-08
    -.618954353362D-09  .100000000000D+01  .190000000000D+04  .000000000000D+00
     .240000000000D+01  .000000000000D+00  .139698386192D-08  .350000000000D+02
     .252006000000D+06  .400000000000D+01
10 16  6  8  0  0  0.0 -.405255705118D-04 -.841282599140D-11  .000000000000D+00
     .340000000000D+02  .186562500000D+02  .491449042254D-08  .857591851057D-01
     .841915607452D-06  .153937528376D-02  .629946589470D-05  .515367451859D+04
     .259200000000D+06 -.149011611938D-07 -.137238663449D+01 -.298023223877D-07
     .959058612869D+00  .253437500000D+03 -.270918150346D+01 -.816998316974D-08
     .158935191717D-09  .100000000000D+01  .190000000000D+04  .000000000000D+00
     .240000000000D+01  .000000000000D+00  .232830643654D-08  .340000000000D+02
     .252006000000D+06  .400000000000D+01
12 16  6  8  0  0  0.0  .382094178349D-03  .113686837722D-11  .000000000000D+00
     .520000000000D+02  .671875000000D+02  .413267214238D-08  .114628007594D+01
     .324845314026D-05  .613652181346D-02  .226497650146D-05  .515371767426D+04
     .259200000000D+06 -.372529029846D-07  .182549769069D+01  .316649675369D-07
     .990051670529D+00  .349093750000D+03  .759410933451D+00 -.824855787126D-08
     .272868508926D-09  .100000000000D+01  .190000000000D+04  .000000000000D+00
     .240000000000D+01  .000000000000D+00 -.125728547573D-07  .520000000000D+02
     .252006000000D+06  .400000000000D+01
15 16  6  8  0  0  0.0 -.314327888191D-03 -.159161572810D-11  .000000000000D+00
     .440000000000D+02 -.168125000000D+02  .529307762079D-08 -.254899129352D+01
    -.875443220139D-06  .813704996835D-02  .727735459805D-05  .515359789848D+04
     .259200000000D+06  .130385160446D-07 -.381748142165D+00 -.596046447754D-07
     .930874445697D+00  .223656250000D+03  .483271987041D+00 -.826105839196D-08
    -.499306512406D-09  .100000000000D+01  .190000000000D+04  .000000000000D+00
     .240000000000D+01  .000000000000D+00 -.107102096081D-07  .440000000000D+02
     .252006000000D+06  .400000000000D+01
